STARLINK-1034
1 24757C 19074AW  21325.13628554  .00005440  00000-0  36442-3 0  3253
2 24757  53.0562  52.6100 0001386  62.9073 147.8776 15.06396538    16
